[{"OBJECT_NAME":"STARLINK-4036","OBJECT_ID":"2022-062H","EPOCH":"2026-03-09T06:47:09.455712","MEAN_MOTION":15.08839442,"ECCENTRICITY":0.00013992,"INCLINATION":53.2191,"RA_OF_ASC_NODE":35.9468,"ARG_OF_PERICENTER":89.3265,"MEAN_ANOMALY":270.7887,"EPHEMERIS_TYPE":0,"CLASSIFICATION_TYPE":"U","NORAD_CAT_ID":52837,"ELEMENT_SET_NO":999,"REV_AT_EPOCH":20572,"BSTAR":-7.7035454e-5,"MEAN_MOTION_DOT":-1.514e-5,"MEAN_MOTION_DDOT":0},{"OBJECT_NAME":"CZ-4C R\/B","OBJECT_ID":"2021-026B","EPOCH":"2026-03-09T16:37:41.696544","MEAN_MOTION":15.16445633,"ECCENTRICITY":0.00393855,"INCLINATION":97.7468,"RA_OF_ASC_NODE":117.371,"ARG_OF_PERICENTER":22.5612,"MEAN_ANOMALY":337.7341,"EPHEMERIS_TYPE":0,"CLASSIFICATION_TYPE":"U","NORAD_CAT_ID":48080,"ELEMENT_SET_NO":999,"REV_AT_EPOCH":27175,"BSTAR":0.00026802982,"MEAN_MOTION_DOT":5.244e-5,"MEAN_MOTION_DDOT":0}]
